OBJECT_NAME,OBJECT_ID,NORAD_CAT_ID,EPOCH,MEAN_MOTION,ECCENTRICITY,INCLINATION,RA_OF_ASC_NODE,ARG_OF_PERICENTER,MEAN_ANOMALY,MEAN_MOTION_DOT,MEAN_MOTION_DDOT,REV_AT_EPOCH,BSTAR,orbital_period_min,altitude_estimated,drag_index,energy_index,orbit_type,orbit_family,anomaly_score,anomaly_flag
STARLINK-4553,2022-101BC,53577,2025-10-13 14:28:43.165632,15.08830268,0.00016913,53.2186,354.166,107.8031,252.3146,1.766e-05,0.0,17506,0.00012903004,95.43817025282529,546.9101359546466,2.1822850665200002e-08,0.0021962876980148693,LEO,LEO,-0.2640152650625779,1
STARLINK-4556,2022-101BD,53578,2025-10-13 11:02:01.820256,15.08842167,0.00016835,53.218,354.6937,93.8718,266.2466,1.217e-05,0.0,17422,9.4568236e-05,95.43741761029402,546.8737653199523,1.59205625306e-08,0.0021962530575139034,LEO,LEO,-0.26800267684846574,1
STARLINK-4580,2022-101BE,53579,2025-10-13 14:07:29.317728,15.08844533,0.00013125,53.2198,354.0742,94.3132,265.801,-1.18e-06,0.0,17424,1.0704262e-05,95.43726795608835,546.8665334312454,1.4049343874999998e-09,0.0021962461696861035,LEO,LEO,-0.2688791486729569,1
CHUANGXIN 16A (CX-16A),2022-102A,53586,2025-10-13 16:33:27.245088,15.04649591,0.0004861,28.9943,137.9985,292.4809,67.5276,3.205e-05,0.0,17234,0.00021167,95.70334572336982,559.7185095746136,1.02892787e-07,0.0022085094479761883,LEO,LEO,-0.22713728197252325,1
BEIJING-3B,2022-103A,53587,2025-10-13 23:31:11.224128,14.8732456,0.00284707,97.8253,3.3163,133.3177,227.0419,2.415e-05,0.0,17049,0.00027172281,96.81814169733067,613.4359923908996,7.736138606666999e-07,0.0022602605521133295,LEO,LEO,-0.1878774059223448,1
STARLINK-4691,2022-104A,53588,2025-10-13 23:35:59.591904,15.08816201,0.00016919,53.2153,182.9604,83.0796,277.0388,-2.382e-05,0.0,17394,-0.00013172155,95.43906004227748,546.9531339423429,-2.22859690445e-08,0.0021963286510786667,LEO,LEO,-0.27934482092433616,1
STARLINK-4673,2022-104B,53589,2025-10-13 16:47:53.412000,15.0882844,0.00018015,53.2161,184.0354,81.5975,278.5221,-8.7e-07,0.0,17375,1.2652408e-05,95.43828587960604,546.9157234850518,2.2793313012e-09,0.0021962930197813968,LEO,LEO,-0.2811998547260181,1
STARLINK-4689,2022-104C,53590,2025-10-13 23:30:39.110976,15.08835265,0.00014266,53.2178,182.9366,89.1068,271.0088,-7e-07,0.0,17381,1.3666926e-05,95.43785417820283,546.8948620026868,1.94972366316e-09,0.0021962731505931485,LEO,LEO,-0.28336608993262385,1
STARLINK-4674,2022-104D,53591,2025-10-13 23:25:20.591328,15.0884085,0.00015517,53.2138,182.9167,83.6958,276.4211,-8.81e-06,0.0,17381,-3.725125e-05,95.4375009133667,546.8777908553702,-5.780276462499999e-09,0.0021962568915385975,LEO,LEO,-0.2820589616570966,1
STARLINK-4672,2022-104E,53592,2025-10-13 16:59:52.991808,15.08825613,0.0001499,53.2154,184.0894,82.7375,277.3787,-6.21e-06,0.0,17375,-2.0924347e-05,95.43846469684765,546.9243646169243,-3.1365596153000004e-09,0.0021963012499255966,LEO,LEO,-0.28144757161585704,1
STARLINK-4681,2022-104G,53594,2025-10-13 16:37:16.510080,15.08833311,0.00016116,53.2176,183.9924,87.3456,272.7721,-4.5e-06,0.0,17389,-1.0187347e-05,95.43797777407367,546.9008346366609,-1.6417928425200002e-09,0.002196278839121475,LEO,LEO,-0.283258647635975,1
STARLINK-4684,2022-104H,53595,2025-10-13 10:21:01.829088,15.08838262,0.00016072,53.2154,185.2028,85.1672,274.9503,4.26e-06,0.0,17371,4.488231e-05,95.43766461033714,546.8857013399047,7.2134848632e-09,0.0021962644257029315,LEO,LEO,-0.2829045916133106,1
STARLINK-4676,2022-104L,53598,2025-10-12 17:50:01.671360,15.08849139,0.00014864,53.2141,188.0169,96.264,263.8521,4e-08,0.0,17328,1.834755e-05,95.43697661877381,546.8524548382138,2.7271798320000003e-09,0.00219623276093084,LEO,LEO,-0.28216945188831954,1
STARLINK-4677,2022-104N,53600,2025-10-13 00:07:45.530976,15.08847116,0.00016115,53.2167,187.5012,85.6516,274.466,3.02e-06,0.0,17331,3.7083817e-05,95.43710457673698,546.858638284386,5.9760571095499996e-09,0.0021962386501714485,LEO,LEO,-0.28286325471403156,1
STARLINK-4675,2022-104P,53601,2025-10-13 09:59:47.788512,15.08842821,0.00013105,53.2169,185.111,89.483,270.6312,1.056e-05,0.0,17338,8.4414427e-05,95.43737624344637,546.8717663090956,1.1062510658349998e-08,0.002196251153605599,LEO,LEO,-0.2832897682346607,1
STARLINK-4648,2022-104Q,53602,2025-10-13 16:29:58.259904,15.08843926,0.00016092,53.2153,178.9821,90.94,269.1776,4.71e-06,0.0,17349,4.7663286e-05,95.43730635000084,546.8683887787438,7.66997598312e-09,0.002196247936763096,LEO,LEO,-0.28324000535646937,1
STARLINK-4692,2022-104R,53603,2025-10-13 23:23:21.029280,15.08846951,0.00017042,53.2128,177.9238,90.6315,269.4872,2.207e-05,0.0,17353,0.00015669973,95.43711501326419,546.8591426194589,2.6704767986600004e-08,0.0021962391305109514,LEO,LEO,-0.28271887119643146,1
STARLINK-4690,2022-104S,53604,2025-10-13 09:57:49.323744,15.08838396,0.00018416,53.22,180.1212,86.2032,273.9171,2.84e-06,0.0,17345,3.5945277e-05,95.43765613451423,546.8852917547565,6.61968221232e-09,0.0021962640356022814,LEO,LEO,-0.28293578977875106,1
STARLINK-4693,2022-104T,53605,2025-10-13 00:16:52.586400,15.08842889,0.00015949,53.2179,186.8471,96.4656,263.6518,5.25e-06,0.0,17332,5.1057635e-05,95.4373719423083,546.8715584609554,8.143182206150001e-09,0.0021962509556458566,LEO,LEO,-0.28213723345614916,1
STARLINK-4590,2022-104U,53606,2025-10-13 23:16:03.542880,15.08836362,0.00020204,53.2145,172.8847,93.4203,266.702,-9.36e-06,0.0,17348,-4.0702533e-05,95.43778479007784,546.8915088970416,-8.22353976732e-09,0.002196269956991998,LEO,LEO,-0.2820922466564856,1
STARLINK-4591,2022-104V,53607,2025-10-13 23:07:24.989088,15.08858771,0.0001621,53.2151,177.8547,78.6376,281.4799,-4.304e-05,0.0,17353,-0.00025236919,95.43636738418111,546.8230141213744,-4.090904569900001e-08,0.002196204721134353,LEO,LEO,-0.27765980051430805,1
STARLINK-4647,2022-104W,53608,2025-10-13 23:26:40.426656,15.08831454,0.00015129,53.214,172.9315,92.9236,267.1929,-1.89e-06,0.0,17348,6.237604e-06,95.4380952347246,546.9065107905171,9.4368710916e-10,0.0021962842452817235,LEO,LEO,-0.28364182374316926,1
